NORAD_CAT_ID,OBJECT_NAME,OBJECT_TYPE,EPOCH,MEAN_MOTION,ECCENTRICITY,INCLINATION,RA_OF_ASC_NODE,ARG_OF_PERICENTER,MEAN_ANOMALY,BSTAR,MEAN_MOTION_DOT,MEAN_MOTION_DDOT,TLE_LINE0,TLE_LINE1,TLE_LINE2,SEMIMAJOR_AXIS,PERIOD,APOGEE,PERIGEE,DECAYED
52121.0,STARLINK-3678,PAYLOAD,2022-05-04 22:00:01,15.73206,0.0001134,53.2144,272.8518,61.9098,36.1747,8.7507e-05,0.00011681,0.0,0 STARLINK-3678,1 52121U 22029AK  22124.91668981  .00011681  00000-0  87507-4 0  9993,2 52121  53.2144 272.8518 0001134  61.9098  36.1747 15.73206000  3709,6727.878000000002,91.533,350.506,348.98,0.0
52121.0,STARLINK-3678,PAYLOAD,2022-05-05 14:00:01,15.73205006,0.0001543,53.2176,269.5437,74.0247,201.6335,-6.7495e-06,-1.568e-05,0.0,0 STARLINK-3678,1 52121U 22029AK  22125.58334491 -.00001568  00000-0 -67495-5 0  9993,2 52121  53.2176 269.5437 0001543  74.0247 201.6335 15.73205006  3710,6727.880999999999,91.533,350.784,348.708,0.0
52121.0,STARLINK-3678,PAYLOAD,2022-05-05 16:00:00,15.73206954,0.0001495,53.2175,269.1318,72.4335,315.4572,-3.3926e-05,-5.379999999999999e-05,0.0,0 STARLINK-3678,1 52121U 22029AK  22125.66667824 -.00005380  00000-0 -33926-4 0  9998,2 52121  53.2175 269.1318 0001495  72.4335 315.4572 15.73206954  8725,6727.875,91.533,350.746,348.735,0.0
52121.0,STARLINK-3678,PAYLOAD,2022-05-05 20:00:01,15.73231676,0.0001288,53.2149,268.3157,56.5123,196.127,7.4384e-05,9.845e-05,0.0,0 STARLINK-3678,1 52121U 22029AK  22125.83335648  .00009845  00000-0  74384-4 0  9994,2 52121  53.2149 268.3157 0001288  56.5123 196.1270 15.73231676  8757,6727.805,91.531,350.536,348.80300000000005,0.0
52121.0,STARLINK-3678,PAYLOAD,2022-05-05 22:00:00,15.73254907,0.000125,53.2145,267.9031,53.3337,311.4758,-0.0002762,-0.00039293,0.0,0 STARLINK-3678,1 52121U 22029AK  22125.91667824 -.00039293  00000-0 -27620-3 0  9999,2 52121  53.2145 267.9031 0001250  53.3337 311.4758 15.73254907  3693,6727.739000000001,91.53,350.445,348.76300000000015,0.0
52121.0,STARLINK-3678,PAYLOAD,2022-05-06 08:00:01,15.73219097,0.0001123,53.2145,265.8391,66.1868,139.8091,-0.00020165,-0.00028846,0.0,0 STARLINK-3678,1 52121U 22029AK  22126.33334491 -.00028846  00000-0 -20165-3 0  9996,2 52121  53.2145 265.8391 0001123  66.1868 139.8091 15.73219097  8833,6727.840999999999,91.532,350.461,348.95,0.0
52121.0,STARLINK-3678,PAYLOAD,2022-05-06 14:00:01,15.73203431,0.0001229,53.2145,264.6035,59.0677,123.6366,-0.00013146,-0.0001903,0.0,0 STARLINK-3678,1 52121U 22029AK  22126.58334491 -.00019030  00000-0 -13146-3 0  9999,2 52121  53.2145 264.6035 0001229  59.0677 123.6366 15.73203431  3769,6727.885,91.533,350.577,348.9240000000001,0.0
52121.0,STARLINK-3678,PAYLOAD,2022-05-07 06:00:02,15.73159602,0.0001048,53.2145,261.3029,53.7937,306.8027,0.00073679,0.0010389,0.0,0 STARLINK-3678,1 52121U 22029AK  22127.25002315  .00103890  00000-0  73679-3 0  9994,2 52121  53.2145 261.3029 0001048  53.7937 306.8027 15.73159602  8972,6728.01,91.536,350.58,349.17,0.0
52121.0,STARLINK-3678,PAYLOAD,2022-05-07 14:00:01,15.73268845,0.0001302,53.2148,259.6546,46.9302,42.5172,-0.00053432,-0.00075162,0.0,0 STARLINK-3678,1 52121U 22029AK  22127.58334491 -.00075162  00000-0 -53432-3 0  9990,2 52121  53.2148 259.6546 0001302  46.9302  42.5172 15.73268845  3758,6727.699000000001,91.529,350.44,348.68800000000016,0.0
52121.0,STARLINK-3678,PAYLOAD,2022-05-07 22:00:00,15.73227462,0.0001335,53.2142,258.0058,40.9458,137.4865,-0.00061292,-0.00085867,0.0,0 STARLINK-3678,1 52121U 22029AK  22127.91667824 -.00085867  00000-0 -61292-3 0  9992,2 52121  53.2142 258.0058 0001335  40.9458 137.4865 15.73227462  9080,6727.816999999999,91.532,350.58,348.784,0.0
52121.0,STARLINK-3678,PAYLOAD,2022-05-08 14:00:01,15.73237855,0.0001335,53.2142,254.7066,40.6703,315.5801,-0.00045426,-0.00063993,0.0,0 STARLINK-3678,1 52121U 22029AK  22128.58334491 -.00063993  00000-0 -45426-3 0  9994,2 52121  53.2142 254.7066 0001335  40.6703 315.5801 15.73237855  9189,6727.7869999999975,91.531,350.55,348.754,0.0
52121.0,STARLINK-3678,PAYLOAD,2022-05-08 22:00:00,15.73185981,0.0001499,53.2138,253.0572,40.4826,44.7185,0.00026138,0.00036199,0.0,0 STARLINK-3678,1 52121U 22029AK  22128.91667824  .00036199  00000-0  26138-3 0  9995,2 52121  53.2138 253.0572 0001499  40.4826  44.7185 15.73185981  3703,6727.935,91.534,350.809,348.792,0.0
52121.0,STARLINK-3678,PAYLOAD,2022-05-09 06:00:00,15.73213509,0.0001419999999999,53.2141,251.4056,50.0978,124.0276,0.00016798,0.00023033,0.0,0 STARLINK-3678,1 52121U 22029AK  22129.25001157  .00023033  00000-0  16798-3 0  9998,2 52121  53.2141 251.4056 0001420  50.0978 124.0276 15.73213509  9296,6727.857,91.532,350.677,348.766,0.0
52121.0,STARLINK-3678,PAYLOAD,2022-05-09 14:00:01,15.73224025,0.0001671,53.2143,249.7578,45.533,217.618,-0.0003702,-0.00052309,0.0,0 STARLINK-3678,1 52121U 22029AK  22129.58335648 -.00052309  00000-0 -37020-3 0  9990,2 52121  53.2143 249.7578 0001671  45.5330 217.6180 15.73224025  3704,6727.8269999999975,91.532,350.816,348.56699999999995,0.0
52121.0,STARLINK-3678,PAYLOAD,2022-05-09 22:00:00,15.73195522,0.0001675,53.214,248.1081,38.7081,313.3487,0.00015016,0.00020501,0.0,0 STARLINK-3678,1 52121U 22029AK  22129.91667824  .00020501  00000-0  15016-3 0  9999,2 52121  53.2140 248.1081 0001675  38.7081 313.3487 15.73195522  3695,6727.908,91.533,350.9,348.646,0.0
52121.0,STARLINK-3678,PAYLOAD,2022-05-10 00:00:00,15.731995,0.000161,53.2141,247.6951,39.1894,65.098,0.00017289,0.00023712,0.0,0 STARLINK-3678,1 52121U 22029AK  22130.00001157  .00023712  00000-0  17289-3 0  9993,2 52121  53.2141 247.6951 0001610  39.1894  65.0980 15.73199500  9417,6727.897,91.533,350.845,348.67800000000005,0.0
52121.0,STARLINK-3678,PAYLOAD,2022-05-10 14:00:01,15.73212767,0.000179,53.2142,244.8088,41.787,128.1145,-0.00037928,-0.00053544,0.0,0 STARLINK-3678,1 52121U 22029AK  22130.58334491 -.00053544  00000-0 -37928-3 0  9996,2 52121  53.2142 244.8088 0001790  41.7870 128.1145 15.73212767  9505,6727.859,91.532,350.92800000000005,348.519,0.0
52121.0,STARLINK-3678,PAYLOAD,2022-05-10 18:00:00,15.73166357,0.0001773,53.214,243.9851,37.5855,356.7787,0.00010561,0.00014205,0.0,0 STARLINK-3678,1 52121U 22029AK  22130.75001157  .00014205  00000-0  10561-3 0  9998,2 52121  53.2140 243.9851 0001773  37.5855 356.7787 15.73166357  3685,6727.991,91.535,351.0490000000001,348.663,0.0
52121.0,STARLINK-3678,PAYLOAD,2022-05-11 22:00:00,15.73215969,0.0001764,53.2144,238.2104,27.449,138.1454,8.7027e-05,0.00011618,0.0,0 STARLINK-3678,1 52121U 22029AK  22131.91667824  .00011618  00000-0  87027-4 0  9993,2 52121  53.2144 238.2104 0001764  27.4490 138.1454 15.73215969  9717,6727.85,91.532,350.901,348.528,0.0
52121.0,STARLINK-3678,PAYLOAD,2022-05-12 14:00:01,15.73230279,0.0001962,53.2144,234.9119,31.1928,312.3148,-0.00017698,-0.00025418,0.0,0 STARLINK-3678,1 52121U 22029AK  22132.58334491 -.00025418  00000-0 -17698-3 0  9999,2 52121  53.2144 234.9119 0001962  31.1928 312.3148 15.73230279  1308,6727.809,91.531,350.994,348.35400000000016,0.0
52121.0,STARLINK-3678,PAYLOAD,2022-05-12 22:00:00,15.732192,0.0001893,53.2142,233.2616,26.6588,45.8248,0.00015048,0.00020568,0.0,0 STARLINK-3678,1 52121U 22029AK  22132.91667824  .00020568  00000-0  15048-3 0  9991,2 52121  53.2142 233.2616 0001893  26.6588  45.8248 15.73219200  1304,6727.84,91.532,350.97900000000016,348.432,0.0
52121.0,STARLINK-3678,PAYLOAD,2022-05-13 06:00:00,15.73250324,0.0001802,53.2147,231.6105,32.6568,128.759,-0.00034112,-0.00048326,0.0,0 STARLINK-3678,1 52121U 22029AK  22133.25001157 -.00048326  00000-0 -34112-3 0  9997,2 52121  53.2147 231.6105 0001802  32.6568 128.7590 15.73250324  9928,6727.752,91.53,350.829,348.404,0.0
52121.0,STARLINK-3678,PAYLOAD,2022-05-13 14:00:01,15.73205617,0.0002163,53.2149,229.9631,30.7006,219.6824,-0.00073965,-0.001032,0.0,0 STARLINK-3678,1 52121U 22029AK  22133.58334491 -.00103200  00000-0 -73965-3 0  9995,2 52121  53.2149 229.9631 0002163  30.7006 219.6824 15.73205617  1300,6727.879,91.533,351.199,348.289,0.0
52121.0,STARLINK-3678,PAYLOAD,2022-05-13 22:00:00,15.73140102,0.0002176,53.2146,228.3128,30.8898,308.3938,2.771e-05,3.26e-05,0.0,0 STARLINK-3678,1 52121U 22029AK  22133.91667824  .00003260  00000-0  27710-4 0  9992,2 52121  53.2146 228.3128 0002176  30.8898 308.3938 15.73140102 10023,6728.066,91.537,351.395,348.467,0.0
52121.0,STARLINK-3678,PAYLOAD,2022-05-14 14:00:01,15.73202987,0.0002369,53.2145,225.0151,30.3756,126.6854,0.0005166,0.00072524,0.0,0 STARLINK-3678,1 52121U 22029AK  22134.58334491  .00072524  00000-0  51660-3 0  9996,2 52121  53.2145 225.0151 0002369  30.3756 126.6854 15.73202987  1303,6727.887,91.533,351.345,348.158,0.0
52121.0,STARLINK-3678,PAYLOAD,2022-05-14 16:00:00,15.73198887,0.0002405,53.2145,224.6031,29.3232,239.9778,0.00076997,0.00108853,0.0,0 STARLINK-3678,1 52121U 22029AK  22134.66667824  .00108853  00000-0  76997-3 0  9999,2 52121  53.2145 224.6031 0002405  29.3232 239.9778 15.73198887 10141,6727.898,91.533,351.381,348.145,0.0
52121.0,STARLINK-3678,PAYLOAD,2022-05-14 22:00:00,15.733080599999996,0.0002231,53.2142,223.3644,28.5187,217.4987,-0.00069922,-0.00098081,0.0,0 STARLINK-3678,1 52121U 22029AK  22134.91667824 -.00098081  00000-0 -69922-3 0  9990,2 52121  53.2142 223.3644 0002231  28.5187 217.4987 15.73308060  1308,6727.587,91.527,350.95300000000015,347.951,0.0
52121.0,STARLINK-3678,PAYLOAD,2022-05-15 06:00:00,15.73255492,0.000211,53.2146,221.7138,28.9189,306.0984,-0.00041475,-0.00058569,0.0,0 STARLINK-3678,1 52121U 22029AK  22135.25001157 -.00058569  00000-0 -41475-3 0  9999,2 52121  53.2146 221.7138 0002110  28.9189 306.0984 15.73255492 10238,6727.736999999999,91.53,351.022,348.182,0.0
52121.0,STARLINK-3678,PAYLOAD,2022-05-15 14:00:01,15.73197073,0.0002346,53.2146,220.0664,23.0311,40.9804,1.7538e-05,1.84e-05,0.0,0 STARLINK-3678,1 52121U 22029AK  22135.58335648  .00001840  00000-0  17538-4 0  9992,2 52121  53.2146 220.0664 0002346  23.0311  40.9804 15.73197073 10299,6727.904,91.533,351.347,348.19,0.0
